{
    "links": {
        "self": "http://www.neowsapp.com/rest/v1/neo/54053761?api_key=iIulBulltgU6a56xZRHN4H3l9WmuAYTsLGpBGhQ2"
    },
    "id": "54053761",
    "neo_reference_id": "54053761",
    "name": "(2020 RF1)",
    "designation": "2020 RF1",
    "nasa_jpl_url": "http://ssd.jpl.nasa.gov/sbdb.cgi?sstr=54053761",
    "absolute_magnitude_h": 26.214,
    "estimated_diameter": {
        "kilometers": {
            "estimated_diameter_min": 0.015196899,
            "estimated_diameter_max": 0.0339812992
        },
        "meters": {
            "estimated_diameter_min": 15.1968989821,
            "estimated_diameter_max": 33.9812991713
        },
        "miles": {
            "estimated_diameter_min": 0.0094429123,
            "estimated_diameter_max": 0.0211149938
        },
        "feet": {
            "estimated_diameter_min": 49.8585940566,
            "estimated_diameter_max": 111.4872055731
        }
    },
    "is_potentially_hazardous_asteroid": false,
    "close_approach_data": [
        {
            "close_approach_date": "2020-09-05",
            "close_approach_date_full": "2020-Sep-05 14:08",
            "epoch_date_close_approach": 1599314880000,
            "relative_velocity": {
                "kilometers_per_second": "7.3267070252",
                "kilometers_per_hour": "26376.1452905678",
                "miles_per_hour": "16389.1109445753"
            },
            "miss_distance": {
                "astronomical": "0.0359539816",
                "lunar": "13.9860988424",
                "kilometers": "5378639.065379192",
                "miles": "3342131.3385371696"
            },
            "orbiting_body": "Earth"
        }
    ],
    "orbital_data": {
        "orbit_id": "3",
        "orbit_determination_date": "2020-09-24 08:24:57",
        "first_observation_date": "2020-09-08",
        "last_observation_date": "2020-09-22",
        "data_arc_in_days": 14,
        "observations_used": 41,
        "orbit_uncertainty": "8",
        "minimum_orbit_intersection": ".0310803",
        "jupiter_tisserand_invariant": "3.431",
        "epoch_osculation": "2459102.5",
        "eccentricity": ".5346941839039016",
        "semi_major_axis": "2.236056120784722",
        "inclination": "4.549552891335518",
        "ascending_node_longitude": "339.3443999285697",
        "orbital_period": "1221.300333954525",
        "perihelion_distance": "1.040449918118411",
        "perihelion_argument": "358.3101075227504",
        "aphelion_distance": "3.431662323451032",
        "perihelion_time": "2459093.839577610906",
        "mean_anomaly": "2.552813565504133",
        "mean_motion": ".2947677897002888",
        "equinox": "J2000",
        "orbit_class": {
            "orbit_class_type": "AMO",
            "orbit_class_description": "Near-Earth asteroid orbits similar to that of 1221 Amor",
            "orbit_class_range": "1.017 AU < q (perihelion) < 1.3 AU"
        }
    },
    "is_sentry_object": false
}